{
  "norad_id": 32958,
  "name": "FENGYUN 3A",
  "history": [
    {
      "epoch": "2026-04-13T03:09:33.359904Z",
      "apogee_km": 832.6333694278392,
      "perigee_km": 821.0692191157677,
      "latitude_deg": 2.154335306343643e-05,
      "longitude_deg": 156.48218146287786,
      "height_km": 825.2267514867059,
      "semi_major_axis_km": 7204.988294271803,
      "eccentricity": 0.00080251,
      "inclination_deg": 98.6841,
      "raan_deg": 45.198,
      "arg_perigee_deg": 321.7997,
      "mean_anomaly_deg": 38.261,
      "mean_motion_rev_day": 14.19557023
    },
    {
      "epoch": "2026-04-14T19:45:29.352960Z",
      "apogee_km": 832.5737754490692,
      "perigee_km": 821.1264918910947,
      "latitude_deg": 4.060937295866993e-05,
      "longitude_deg": -92.50956112151475,
      "height_km": 825.6142879192508,
      "semi_major_axis_km": 7204.987133670082,
      "eccentricity": 0.0007944,
      "inclination_deg": 98.6844,
      "raan_deg": 46.8569,
      "arg_perigee_deg": 316.5555,
      "mean_anomaly_deg": 43.4995,
      "mean_motion_rev_day": 14.19557366
    },
    {
      "epoch": "2026-04-15T19:26:27.016224Z",
      "apogee_km": 832.5466462936065,
      "perigee_km": 821.1526803842016,
      "latitude_deg": -2.0836487877081272e-05,
      "longitude_deg": -87.75472677870803,
      "height_km": 825.8492240095227,
      "semi_major_axis_km": 7204.986663338904,
      "eccentricity": 0.0007907,
      "inclination_deg": 98.6846,
      "raan_deg": 47.8246,
      "arg_perigee_deg": 313.4844,
      "mean_anomaly_deg": 46.5674,
      "mean_motion_rev_day": 14.19557505
    },
    {
      "epoch": "2026-04-16T14:02:55.176576Z",
      "apogee_km": 832.5203087534619,
      "perigee_km": 821.1782193765703,
      "latitude_deg": -2.364399216544906e-05,
      "longitude_deg": -6.87585577321348,
      "height_km": 826.046813818025,
      "semi_major_axis_km": 7204.986264065016,
      "eccentricity": 0.0007871,
      "inclination_deg": 98.6847,
      "raan_deg": 48.585,
      "arg_perigee_deg": 311.0275,
      "mean_anomaly_deg": 49.022,
      "mean_motion_rev_day": 14.19557623
    },
    {
      "epoch": "2026-04-17T17:06:52.488864Z",
      "apogee_km": 832.4905427246886,
      "perigee_km": 821.2068146532938,
      "latitude_deg": 2.0613890043681173e-05,
      "longitude_deg": -52.870319928672544,
      "height_km": 826.3430920793861,
      "semi_major_axis_km": 7204.985678688991,
      "eccentricity": 0.00078305,
      "inclination_deg": 98.6847,
      "raan_deg": 49.6909,
      "arg_perigee_deg": 307.3901,
      "mean_anomaly_deg": 52.6562,
      "mean_motion_rev_day": 14.19557796
    },
    {
      "epoch": "2026-04-18T06:38:51.144576Z",
      "apogee_km": 832.4720543017156,
      "perigee_km": 821.2246398757898,
      "latitude_deg": -2.854591658204297e-05,
      "longitude_deg": 104.13251015527298,
      "height_km": 826.4969750187079,
      "semi_major_axis_km": 7204.985347088753,
      "eccentricity": 0.00078053,
      "inclination_deg": 98.6848,
      "raan_deg": 50.2439,
      "arg_perigee_deg": 305.5769,
      "mean_anomaly_deg": 54.4679,
      "mean_motion_rev_day": 14.19557894
    },
    {
      "epoch": "2026-04-19T19:51:47.426400Z",
      "apogee_km": 832.4456251299944,
      "perigee_km": 821.2490794465375,
      "latitude_deg": -1.859962320681257e-05,
      "longitude_deg": -94.1095917754791,
      "height_km": 826.9210680805966,
      "semi_major_axis_km": 7204.984352288266,
      "eccentricity": 0.000777,
      "inclination_deg": 98.685,
      "raan_deg": 51.7647,
      "arg_perigee_deg": 300.5675,
      "mean_anomaly_deg": 59.4734,
      "mean_motion_rev_day": 14.19558188
    },
    {
      "epoch": "2026-04-20T09:23:46.087296Z",
      "apogee_km": 832.412974881303,
      "perigee_km": 821.2814183971796,
      "latitude_deg": -3.230359277981324e-05,
      "longitude_deg": 62.89320984991943,
      "height_km": 827.0845758737123,
      "semi_major_axis_km": 7204.984196639241,
      "eccentricity": 0.00077249,
      "inclination_deg": 98.685,
      "raan_deg": 52.3177,
      "arg_perigee_deg": 298.8246,
      "mean_anomaly_deg": 61.2154,
      "mean_motion_rev_day": 14.19558234
    },
    {
      "epoch": "2026-04-21T09:04:43.703040Z",
      "apogee_km": 832.3959876363124,
      "perigee_km": 821.2964228093388,
      "latitude_deg": -1.151023898888363e-05,
      "longitude_deg": 67.64832601505906,
      "height_km": 827.3661734729618,
      "semi_major_axis_km": 7204.983205222825,
      "eccentricity": 0.00077027,
      "inclination_deg": 98.6851,
      "raan_deg": 53.2855,
      "arg_perigee_deg": 295.6343,
      "mean_anomaly_deg": 64.4037,
      "mean_motion_rev_day": 14.19558527
    },
    {
      "epoch": "2026-04-22T13:50:10.800960Z",
      "apogee_km": 832.3725721739102,
      "perigee_km": 821.3186878229662,
      "latitude_deg": 6.840281997620299e-05,
      "longitude_deg": -3.720426832275873,
      "height_km": 827.7217339392153,
      "semi_major_axis_km": 7204.982629998438,
      "eccentricity": 0.0007671,
      "inclination_deg": 98.6851,
      "raan_deg": 54.4607,
      "arg_perigee_deg": 291.7159,
      "mean_anomaly_deg": 68.3201,
      "mean_motion_rev_day": 14.19558697
    },
    {
      "epoch": "2026-04-23T13:31:08.391648Z",
      "apogee_km": 832.3533291996428,
      "perigee_km": 821.336191589824,
      "latitude_deg": 6.128054222083639e-06,
      "longitude_deg": 1.0348069469770105,
      "height_km": 828.0224374023754,
      "semi_major_axis_km": 7204.981760394733,
      "eccentricity": 0.00076455,
      "inclination_deg": 98.6852,
      "raan_deg": 55.4285,
      "arg_perigee_deg": 288.4522,
      "mean_anomaly_deg": 71.5823,
      "mean_motion_rev_day": 14.19558954
    },
    {
      "epoch": "2026-04-24T19:58:05.289888Z",
      "apogee_km": 832.3309536554116,
      "perigee_km": 821.3563271439552,
      "latitude_deg": -2.845669026600311e-05,
      "longitude_deg": -95.70836700358133,
      "height_km": 828.4118312971872,
      "semi_major_axis_km": 7204.980640399684,
      "eccentricity": 0.0007616,
      "inclination_deg": 98.6853,
      "raan_deg": 56.6729,
      "arg_perigee_deg": 284.2762,
      "mean_anomaly_deg": 75.7568,
      "mean_motion_rev_day": 14.19559285
    },
    {
      "epoch": "2026-04-25T19:39:02.865024Z",
      "apogee_km": 832.3140461913963,
      "perigee_km": 821.3711231981624,
      "latitude_deg": -5.828232570575006e-06,
      "longitude_deg": -90.9529793167411,
      "height_km": 828.714485724915,
      "semi_major_axis_km": 7204.979584694779,
      "eccentricity": 0.0007594,
      "inclination_deg": 98.6855,
      "raan_deg": 57.6408,
      "arg_perigee_deg": 281.0589,
      "mean_anomaly_deg": 78.9733,
      "mean_motion_rev_day": 14.19559597
    },
    {
      "epoch": "2026-04-26T19:20:00.432384Z",
      "apogee_km": 832.3086731013882,
      "perigee_km": 821.3749736373484,
      "latitude_deg": 2.1693128101490072e-05,
      "longitude_deg": -86.19755924923123,
      "height_km": 829.0185871336859,
      "semi_major_axis_km": 7204.978823369368,
      "eccentricity": 0.00075876,
      "inclination_deg": 98.6856,
      "raan_deg": 58.6087,
      "arg_perigee_deg": 277.8297,
      "mean_anomaly_deg": 82.2018,
      "mean_motion_rev_day": 14.19559822
    },
    {
      "epoch": "2026-04-27T19:00:57.979008Z",
      "apogee_km": 832.308267122331,
      "perigee_km": 821.3739923126714,
      "latitude_deg": 5.7527562363753675e-05,
      "longitude_deg": -81.44205348622496,
      "height_km": 829.3284304675857,
      "semi_major_axis_km": 7204.9781297175,
      "eccentricity": 0.0007588,
      "inclination_deg": 98.6857,
      "raan_deg": 59.5766,
      "arg_perigee_deg": 274.5561,
      "mean_anomaly_deg": 85.4749,
      "mean_motion_rev_day": 14.19560027
    },
    {
      "epoch": "2026-04-28T20:23:25.331136Z",
      "apogee_km": 832.3144088218778,
      "perigee_km": 821.3657256704901,
      "latitude_deg": -7.145207327280626e-05,
      "longitude_deg": -102.06108432712455,
      "height_km": 829.6622520839026,
      "semi_major_axis_km": 7204.977067246184,
      "eccentricity": 0.0007598,
      "inclination_deg": 98.6859,
      "raan_deg": 60.6136,
      "arg_perigee_deg": 271.0412,
      "mean_anomaly_deg": 88.9893,
      "mean_motion_rev_day": 14.19560341
    },
    {
      "epoch": "2026-04-29T20:04:22.856160Z",
      "apogee_km": 832.3127537230321,
      "perigee_km": 821.3655129860135,
      "latitude_deg": -3.860772716122526e-05,
      "longitude_deg": -97.3053883026804,
      "height_km": 829.9732775268784,
      "semi_major_axis_km": 7204.976133354523,
      "eccentricity": 0.0007597,
      "inclination_deg": 98.6861,
      "raan_deg": 61.5816,
      "arg_perigee_deg": 267.7758,
      "mean_anomaly_deg": 92.2548,
      "mean_motion_rev_day": 14.19560617
    },
    {
      "epoch": "2026-04-30T12:59:21.089184Z",
      "apogee_km": 832.3086873209777,
      "perigee_km": 821.3686522639646,
      "latitude_deg": -7.2355392147241435e-06,
      "longitude_deg": 8.948646462258477,
      "height_km": 830.1939553725289,
      "semi_major_axis_km": 7204.97566979247,
      "eccentricity": 0.0007592,
      "inclination_deg": 98.6862,
      "raan_deg": 62.273,
      "arg_perigee_deg": 265.4541,
      "mean_anomaly_deg": 94.5768,
      "mean_motion_rev_day": 14.19560754
    },
    {
      "epoch": "2026-05-02T08:58:16.459968Z",
      "apogee_km": 832.308523241687,
      "perigee_km": 821.3656086303436,
      "latitude_deg": 2.173929113747001e-06,
      "longitude_deg": 69.2092525348768,
      "height_km": 830.7633532030486,
      "semi_major_axis_km": 7204.974065936015,
      "eccentricity": 0.0007594,
      "inclination_deg": 98.6863,
      "raan_deg": 64.0706,
      "arg_perigee_deg": 259.4214,
      "mean_anomaly_deg": 100.6107,
      "mean_motion_rev_day": 14.19561228
    }
  ]
}